[{"OBJECT_NAME":"STARLINK-31887","OBJECT_ID":"2024-097E","EPOCH":"2025-11-15T09:36:44.389728","MEAN_MOTION":15.27559473,"ECCENTRICITY":0.0001992,"INCLINATION":42.9968,"RA_OF_ASC_NODE":200.1649,"ARG_OF_PERICENTER":54.6923,"MEAN_ANOMALY":305.4114,"EPHEMERIS_TYPE":0,"CLASSIFICATION_TYPE":"U","NORAD_CAT_ID":59839,"ELEMENT_SET_NO":999,"REV_AT_EPOCH":8443,"BSTAR":0.00036553,"MEAN_MOTION_DOT":9.804e-5,"MEAN_MOTION_DDOT":0},{"OBJECT_NAME":"STARLINK-31925","OBJECT_ID":"2024-097F","EPOCH":"2025-11-15T12:00:02.998944","MEAN_MOTION":15.51293593,"ECCENTRICITY":0.0020053,"INCLINATION":42.9991,"RA_OF_ASC_NODE":193.3242,"ARG_OF_PERICENTER":241.0303,"MEAN_ANOMALY":40.7037,"EPHEMERIS_TYPE":0,"CLASSIFICATION_TYPE":"U","NORAD_CAT_ID":59840,"ELEMENT_SET_NO":999,"REV_AT_EPOCH":587,"BSTAR":0.0052975,"MEAN_MOTION_DOT":0.00334709,"MEAN_MOTION_DDOT":0},{"OBJECT_NAME":"STARLINK-31852","OBJECT_ID":"2024-097G","EPOCH":"2025-11-15T09:04:47.466624","MEAN_MOTION":15.27580512,"ECCENTRICITY":0.0001107,"INCLINATION":43.0009,"RA_OF_ASC_NODE":193.07,"ARG_OF_PERICENTER":287.4436,"MEAN_ANOMALY":72.6295,"EPHEMERIS_TYPE":0,"CLASSIFICATION_TYPE":"U","NORAD_CAT_ID":59841,"ELEMENT_SET_NO":999,"REV_AT_EPOCH":8451,"BSTAR":0.00022971,"MEAN_MOTION_DOT":6.064e-5,"MEAN_MOTION_DDOT":0},{"OBJECT_NAME":"STARLINK-31906","OBJECT_ID":"2024-097H","EPOCH":"2025-11-15T09:10:48.724896","MEAN_MOTION":15.27538679,"ECCENTRICITY":0.0001652,"INCLINATION":43.0054,"RA_OF_ASC_NODE":200.0259,"ARG_OF_PERICENTER":262.2292,"MEAN_ANOMALY":97.8372,"EPHEMERIS_TYPE":0,"CLASSIFICATION_TYPE":"U","NORAD_CAT_ID":59842,"ELEMENT_SET_NO":999,"REV_AT_EPOCH":8443,"BSTAR":0.0001529,"MEAN_MOTION_DOT":3.942e-5,"MEAN_MOTION_DDOT":0},{"OBJECT_NAME":"STARLINK-31857","OBJECT_ID":"2024-097J","EPOCH":"2025-11-14T16:37:27.291936","MEAN_MOTION":15.27544147,"ECCENTRICITY":8.51e-5,"INCLINATION":42.9989,"RA_OF_ASC_NODE":203.4397,"ARG_OF_PERICENTER":266.8014,"MEAN_ANOMALY":93.2741,"EPHEMERIS_TYPE":0,"CLASSIFICATION_TYPE":"U","NORAD_CAT_ID":59843,"ELEMENT_SET_NO":999,"REV_AT_EPOCH":8433,"BSTAR":-0.00013013,"MEAN_MOTION_DOT":-3.837e-5,"MEAN_MOTION_DDOT":0},{"OBJECT_NAME":"STARLINK-31851","OBJECT_ID":"2024-097K","EPOCH":"2025-11-14T16:57:47.462976","MEAN_MOTION":15.27549543,"ECCENTRICITY":0.0001003,"INCLINATION":42.9969,"RA_OF_ASC_NODE":203.5482,"ARG_OF_PERICENTER":249.7856,"MEAN_ANOMALY":110.2888,"EPHEMERIS_TYPE":0,"CLASSIFICATION_TYPE":"U","NORAD_CAT_ID":59844,"ELEMENT_SET_NO":999,"REV_AT_EPOCH":8433,"BSTAR":-3.2033e-5,"MEAN_MOTION_DOT":-1.142e-5,"MEAN_MOTION_DDOT":0},{"OBJECT_NAME":"STARLINK-31903","OBJECT_ID":"2024-097L","EPOCH":"2025-11-15T08:49:59.784384","MEAN_MOTION":15.27549625,"ECCENTRICITY":7.25e-5,"INCLINATION":43.0026,"RA_OF_ASC_NODE":192.9874,"ARG_OF_PERICENTER":260.462,"MEAN_ANOMALY":99.615,"EPHEMERIS_TYPE":0,"CLASSIFICATION_TYPE":"U","NORAD_CAT_ID":59845,"ELEMENT_SET_NO":999,"REV_AT_EPOCH":8451,"BSTAR":0.00022546,"MEAN_MOTION_DOT":5.942e-5,"MEAN_MOTION_DDOT":0},{"OBJECT_NAME":"STARLINK-31922","OBJECT_ID":"2024-097M","EPOCH":"2025-11-13T17:10:39.660384","MEAN_MOTION":15.27559793,"ECCENTRICITY":0.00010532,"INCLINATION":43.001,"RA_OF_ASC_NODE":209.0054,"ARG_OF_PERICENTER":279.6309,"MEAN_ANOMALY":80.4424,"EPHEMERIS_TYPE":0,"CLASSIFICATION_TYPE":"U","NORAD_CAT_ID":59846,"ELEMENT_SET_NO":999,"REV_AT_EPOCH":8418,"BSTAR":-0.00031838168,"MEAN_MOTION_DOT":-9.007e-5,"MEAN_MOTION_DDOT":0},{"OBJECT_NAME":"STARLINK-31889","OBJECT_ID":"2024-097N","EPOCH":"2025-11-15T09:44:04.932960","MEAN_MOTION":15.27585872,"ECCENTRICITY":0.0001987,"INCLINATION":43.0047,"RA_OF_ASC_NODE":200.2013,"ARG_OF_PERICENTER":275.5206,"MEAN_ANOMALY":84.5419,"EPHEMERIS_TYPE":0,"CLASSIFICATION_TYPE":"U","NORAD_CAT_ID":59847,"ELEMENT_SET_NO":999,"REV_AT_EPOCH":8443,"BSTAR":0.00037197,"MEAN_MOTION_DOT":9.989e-5,"MEAN_MOTION_DDOT":0},{"OBJECT_NAME":"STARLINK-31859","OBJECT_ID":"2024-097P","EPOCH":"2025-11-15T08:59:14.296128","MEAN_MOTION":15.27536421,"ECCENTRICITY":0.0001827,"INCLINATION":43.0079,"RA_OF_ASC_NODE":193.0382,"ARG_OF_PERICENTER":263.0781,"MEAN_ANOMALY":96.9863,"EPHEMERIS_TYPE":0,"CLASSIFICATION_TYPE":"U","NORAD_CAT_ID":59848,"ELEMENT_SET_NO":999,"REV_AT_EPOCH":8451,"BSTAR":8.0694e-5,"MEAN_MOTION_DOT":1.956e-5,"MEAN_MOTION_DDOT":0},{"OBJECT_NAME":"STARLINK-31895","OBJECT_ID":"2024-097Q","EPOCH":"2025-11-14T17:03:19.982880","MEAN_MOTION":15.27573718,"ECCENTRICITY":0.0001562,"INCLINATION":42.9988,"RA_OF_ASC_NODE":203.5799,"ARG_OF_PERICENTER":271.2771,"MEAN_ANOMALY":88.7901,"EPHEMERIS_TYPE":0,"CLASSIFICATION_TYPE":"U","NORAD_CAT_ID":59849,"ELEMENT_SET_NO":999,"REV_AT_EPOCH":8433,"BSTAR":0.00035436,"MEAN_MOTION_DOT":9.5e-5,"MEAN_MOTION_DDOT":0},{"OBJECT_NAME":"STARLINK-31899","OBJECT_ID":"2024-097R","EPOCH":"2025-11-15T08:50:27.036672","MEAN_MOTION":15.2761485,"ECCENTRICITY":0.0001514,"INCLINATION":42.9985,"RA_OF_ASC_NODE":199.9137,"ARG_OF_PERICENTER":276.0353,"MEAN_ANOMALY":84.0326,"EPHEMERIS_TYPE":0,"CLASSIFICATION_TYPE":"U","NORAD_CAT_ID":59850,"ELEMENT_SET_NO":999,"REV_AT_EPOCH":8443,"BSTAR":0.0008614,"MEAN_MOTION_DOT":0.00023543,"MEAN_MOTION_DDOT":0},{"OBJECT_NAME":"STARLINK-31896","OBJECT_ID":"2024-097S","EPOCH":"2025-11-15T08:55:58.798848","MEAN_MOTION":15.27566456,"ECCENTRICITY":0.0002652,"INCLINATION":42.9938,"RA_OF_ASC_NODE":199.9464,"ARG_OF_PERICENTER":272.6592,"MEAN_ANOMALY":87.3956,"EPHEMERIS_TYPE":0,"CLASSIFICATION_TYPE":"U","NORAD_CAT_ID":59851,"ELEMENT_SET_NO":999,"REV_AT_EPOCH":8443,"BSTAR":6.4551e-5,"MEAN_MOTION_DOT":1.514e-5,"MEAN_MOTION_DDOT":0},{"OBJECT_NAME":"STARLINK-31892","OBJECT_ID":"2024-097U","EPOCH":"2025-11-14T17:40:19.604064","MEAN_MOTION":15.27585597,"ECCENTRICITY":0.0001244,"INCLINATION":43.0014,"RA_OF_ASC_NODE":203.777,"ARG_OF_PERICENTER":267.2859,"MEAN_ANOMALY":92.7851,"EPHEMERIS_TYPE":0,"CLASSIFICATION_TYPE":"U","NORAD_CAT_ID":59853,"ELEMENT_SET_NO":999,"REV_AT_EPOCH":8433,"BSTAR":-3.7367e-5,"MEAN_MOTION_DOT":-1.29e-5,"MEAN_MOTION_DDOT":0},{"OBJECT_NAME":"STARLINK-31891","OBJECT_ID":"2024-097V","EPOCH":"2025-11-15T09:27:27.666144","MEAN_MOTION":15.27547158,"ECCENTRICITY":8.31e-5,"INCLINATION":43.0003,"RA_OF_ASC_NODE":200.1135,"ARG_OF_PERICENTER":245.5435,"MEAN_ANOMALY":114.5329,"EPHEMERIS_TYPE":0,"CLASSIFICATION_TYPE":"U","NORAD_CAT_ID":59854,"ELEMENT_SET_NO":999,"REV_AT_EPOCH":8443,"BSTAR":0.00012326,"MEAN_MOTION_DOT":3.128e-5,"MEAN_MOTION_DDOT":0},{"OBJECT_NAME":"STARLINK-31882","OBJECT_ID":"2024-097W","EPOCH":"2025-11-15T08:53:38.804064","MEAN_MOTION":15.27583352,"ECCENTRICITY":0.0001175,"INCLINATION":42.9992,"RA_OF_ASC_NODE":192.9982,"ARG_OF_PERICENTER":309.0371,"MEAN_ANOMALY":51.0376,"EPHEMERIS_TYPE":0,"CLASSIFICATION_TYPE":"U","NORAD_CAT_ID":59855,"ELEMENT_SET_NO":999,"REV_AT_EPOCH":8451,"BSTAR":0.00033391,"MEAN_MOTION_DOT":8.938e-5,"MEAN_MOTION_DDOT":0},{"OBJECT_NAME":"STARLINK-31691","OBJECT_ID":"2024-097X","EPOCH":"2025-11-14T16:31:51.311712","MEAN_MOTION":15.27564731,"ECCENTRICITY":0.0001449,"INCLINATION":43.0044,"RA_OF_ASC_NODE":203.4123,"ARG_OF_PERICENTER":280.4734,"MEAN_ANOMALY":79.5955,"EPHEMERIS_TYPE":0,"CLASSIFICATION_TYPE":"U","NORAD_CAT_ID":59856,"ELEMENT_SET_NO":999,"REV_AT_EPOCH":8433,"BSTAR":4.7706e-5,"MEAN_MOTION_DOT":1.05e-5,"MEAN_MOTION_DDOT":0}]
