STARLINK-31887          
1 59839U 24097E   25319.40051377  .00009804  00000+0  36553-3 0  9998
2 59839  42.9968 200.1649 0001992  54.6923 305.4114 15.27559473 84431
STARLINK-31925          
1 59840U 24097F   25319.50003471  .00334709  00000+0  52975-2 0  9993
2 59840  42.9991 193.3242 0020053 241.0303  40.7037 15.51293593  5873
STARLINK-31852          
1 59841U 24097G   25319.37832716  .00006064  00000+0  22971-3 0  9995
2 59841  43.0009 193.0700 0001107 287.4436  72.6295 15.27580512 84513
STARLINK-31906          
1 59842U 24097H   25319.38250839  .00003942  00000+0  15290-3 0  9995
2 59842  43.0054 200.0259 0001652 262.2292  97.8372 15.27538679 84431
STARLINK-31857          
1 59843U 24097J   25318.69267699 -.00003837  00000+0 -13013-3 0  9997
2 59843  42.9989 203.4397 0000851 266.8014  93.2741 15.27544147 84335
STARLINK-31851          
1 59844U 24097K   25318.70679934 -.00001142  00000+0 -32033-4 0  9990
2 59844  42.9969 203.5482 0001003 249.7856 110.2888 15.27549543 84331
STARLINK-31903          
1 59845U 24097L   25319.36805306  .00005942  00000+0  22546-3 0  9995
2 59845  43.0026 192.9874 0000725 260.4620  99.6150 15.27549625 84516
STARLINK-31922          
1 59846U 24097M   25317.71573681 -.00009007  00000+0 -31838-3 0  9993
2 59846  43.0010 209.0054 0001053 279.6309  80.4424 15.27559793 84183
STARLINK-31889          
1 59847U 24097N   25319.40561265  .00009989  00000+0  37197-3 0  9998
2 59847  43.0047 200.2013 0001987 275.5206  84.5419 15.27585872 84433
STARLINK-31859          
1 59848U 24097P   25319.37447102  .00001956  00000+0  80694-4 0  9995
2 59848  43.0079 193.0382 0001827 263.0781  96.9863 15.27536421 84515
STARLINK-31895          
1 59849U 24097Q   25318.71064795  .00009500  00000+0  35436-3 0  9992
2 59849  42.9988 203.5799 0001562 271.2771  88.7901 15.27573718 84330
STARLINK-31899          
1 59850U 24097R   25319.36836848  .00023543  00000+0  86140-3 0  9993
2 59850  42.9985 199.9137 0001514 276.0353  84.0326 15.27614850 84433
STARLINK-31896          
1 59851U 24097S   25319.37220832  .00001514  00000+0  64551-4 0  9992
2 59851  42.9938 199.9464 0002652 272.6592  87.3956 15.27566456 84439
STARLINK-31892          
1 59853U 24097U   25318.73633801 -.00001290  00000+0 -37367-4 0  9995
2 59853  43.0014 203.7770 0001244 267.2859  92.7851 15.27585597 84334
STARLINK-31891          
1 59854U 24097V   25319.39407021  .00003128  00000+0  12326-3 0  9999
2 59854  43.0003 200.1135 0000831 245.5435 114.5329 15.27547158 84434
STARLINK-31882          
1 59855U 24097W   25319.37058801  .00008938  00000+0  33391-3 0  9995
2 59855  42.9992 192.9982 0001175 309.0371  51.0376 15.27583352 84517
STARLINK-31691          
1 59856U 24097X   25318.68878833  .00001050  00000+0  47706-4 0  9998
2 59856  43.0044 203.4123 0001449 280.4734  79.5955 15.27564731 84330
